THEOS                   
1 33396U 08049A   23257.11601157  .00000122  00000+0  77601-4 0  9995
2 33396  98.6965 323.3877 0001231  0.0000 270.3858 14.20038023775053 